      2.10          N: GNSS NAV DATA                        RINEX VERSION / TYPE
fic2rin                                 11/25/2023 00:17:49 PGM / RUN BY / DATE
                                                            END OF HEADER
30 23 11 24  5 59 44.0 -.464936718345D-03  .409272615798D-11  .000000000000D+00
     .190000000000D+02 -.496875000000D+01  .491270463387D-08  .128345548311D+01
    -.137835741043D-06  .660001451615D-02  .114087015390D-04  .515373464203D+04
     .453584000000D+06 -.800937414169D-07  .226488668649D+01  .484287738800D-07
     .935339834898D+00  .148750000000D+03 -.255475898996D+01 -.819462705339D-08
    -.532522181686D-09  .100000000000D+01  .228900000000D+04  .000000000000D+00
     .240000000000D+01  .000000000000D+00  .372529029846D-08  .190000000000D+02
     .446400000000D+06  .400000000000D+01
2  23 11 24  6  0  0.0 -.524828676134D-03  .511590769747D-11  .000000000000D+00
     .840000000000D+02 -.827187500000D+02  .429660754238D-08 -.157199578942D+01
    -.395253300667D-05  .162427416071D-01  .937469303608D-05  .515373097420D+04
     .453600000000D+06 -.240281224251D-06 -.963873645343D+00  .370666384697D-06
     .967560706536D+00  .205156250000D+03 -.130841745618D+01 -.801069082028D-08
    -.170364239212D-09  .100000000000D+01  .228900000000D+04  .000000000000D+00
     .240000000000D+01  .000000000000D+00 -.176951289177D-07  .840000000000D+02
     .446400000000D+06  .400000000000D+01
1  23 11 24  6  0  0.0  .163297634572D-03  .227373675443D-12  .000000000000D+00
     .330000000000D+02 -.895937500000D+02  .365836667137D-08  .209226900795D+01
    -.474415719509D-05  .129649225855D-01  .997819006443D-05  .515403154755D+04
     .453600000000D+06 -.115483999252D-06 -.861285948885D+00 -.281259417534D-06
     .990500811249D+00  .204125000000D+03  .100068334867D+01 -.755031450091D-08
    -.110361739867D-09  .100000000000D+01  .228900000000D+04  .000000000000D+00
     .340000000000D+01  .630000000000D+02  .512227416039D-08  .330000000000D+02
     .446400000000D+06  .400000000000D+01
3  23 11 24  6  0  0.0  .681914389133D-05  .260342858383D-10  .000000000000D+00
     .370000000000D+02  .241250000000D+02  .412802909184D-08  .933704750379D+00
     .122934579849D-05  .507428846322D-02  .963732600212D-05  .515356135750D+04
     .453600000000D+06 -.931322574615D-07  .167361596745D+00  .949949026108D-07
     .981961063534D+00  .204281250000D+03  .111402051305D+01 -.790140055362D-08
     .443232748137D-09  .100000000000D+01  .228900000000D+04  .000000000000D+00
     .240000000000D+01  .000000000000D+00  .186264514923D-08  .370000000000D+02
     .446400000000D+06  .400000000000D+01
12 23 11 24  6  0  0.0 -.450309831649D-03 -.409272615798D-11  .000000000000D+00
     .170000000000D+02  .122125000000D+03  .442625579989D-08  .702551275143D+00
     .620819628239D-05  .874059461057D-02  .777840614319D-05  .515375985146D+04
     .453600000000D+06 -.745058059692D-07 -.290690361988D+01 -.670552253723D-07
     .964287657011D+00  .230625000000D+03  .139722941777D+01 -.831034615927D-08
     .345371528968D-09  .100000000000D+01  .228900000000D+04  .000000000000D+00
     .240000000000D+01  .000000000000D+00 -.125728547573D-07  .170000000000D+02
     .446400000000D+06  .400000000000D+01
10 23 11 24  6  0  0.0 -.626030378044D-04 -.147792889038D-11  .000000000000D+00
     .790000000000D+02  .173750000000D+02  .420874673977D-08 -.253914155972D-01
     .936910510063D-06  .911507883575D-02  .960566103458D-05  .515368515396D+04
     .453600000000D+06 -.186264514923D-08  .164773590796D+00  .223517417908D-07
     .981663431388D+00  .204125000000D+03 -.242383059555D+01 -.796961768085D-08
     .410017078857D-09  .100000000000D+01  .228900000000D+04  .000000000000D+00
     .240000000000D+01  .000000000000D+00  .232830643654D-08  .790000000000D+02
     .446400000000D+06  .400000000000D+01
8  23 11 24  6  0  0.0 -.153602566570D-03 -.181898940355D-11  .000000000000D+00
     .920000000000D+02 -.120937500000D+02  .498485049617D-08 -.209041367965D+01
    -.912696123123D-06  .894876592793D-02  .208243727684D-05  .515378211021D+04
     .453600000000D+06  .391155481339D-07 -.195939859858D+01 -.191852450371D-06
     .955840519326D+00  .338750000000D+03  .279276880820D+00 -.855428489173D-08
     .817891211309D-10  .100000000000D+01  .228900000000D+04  .000000000000D+00
     .240000000000D+01  .000000000000D+00  .512227416039D-08  .920000000000D+02
     .446400000000D+06  .400000000000D+01
7  23 11 24  6  0  0.0  .540632754564D-05 -.989075488178D-11  .000000000000D+00
     .740000000000D+02 -.105000000000D+02  .461340645261D-08  .137467800015D+01
    -.521540641785D-06  .176557073137D-01  .118184834719D-04  .515370372200D+04
     .453600000000D+06 -.350177288055D-06  .226148769289D+01  .558793544769D-08
     .950204473819D+00  .153062500000D+03 -.216591888134D+01 -.818712674098D-08
    -.543951229181D-09  .100000000000D+01  .228900000000D+04  .000000000000D+00
     .240000000000D+01  .000000000000D+00 -.111758708954D-07  .740000000000D+02
     .446400000000D+06  .400000000000D+01
6  23 11 24  6  0  0.0  .497568864375D-03 -.104591890704D-10  .000000000000D+00
     .980000000000D+02 -.941562500000D+02  .375372778640D-08  .228417193469D+01
    -.476650893688D-05  .301746721379D-02  .108834356070D-04  .515378897476D+04
     .453600000000D+06  .109896063805D-06 -.869633735416D+00 -.186264514923D-08
     .989638624387D+00  .182593750000D+03 -.829622867431D+00 -.769424906779D-08
    -.227866634417D-09  .100000000000D+01  .228900000000D+04  .000000000000D+00
     .240000000000D+01  .000000000000D+00  .372529029846D-08  .980000000000D+02
     .446400000000D+06  .400000000000D+01
4  23 11 24  6  0  0.0  .221346039325D-03  .103455022327D-10  .000000000000D+00
     .590000000000D+02 -.239687500000D+02  .487448875631D-08 -.232654565675D+01
    -.131130218506D-05  .271564442664D-02  .515766441822D-05  .515359892082D+04
     .453600000000D+06 -.391155481339D-07  .124717875302D+01 -.614672899246D-07
     .963339573451D+00  .281312500000D+03 -.305058123855D+01 -.826570144250D-08
    -.187150652719D-09  .100000000000D+01  .228900000000D+04  .000000000000D+00
     .240000000000D+01  .000000000000D+00 -.465661287308D-08  .315000000000D+03
     .446400000000D+06  .400000000000D+01
11 23 11 24  6  0  0.0 -.473148189485D-03 -.159161572810D-10  .000000000000D+00
     .209000000000D+03 -.902812500000D+02  .420338937375D-08 -.279205596041D+01
    -.464543700218D-05  .128645135555D-02  .112019479275D-04  .515363630676D+04
     .453600000000D+06 -.745058059692D-08 -.832421894925D+00 -.670552253723D-07
     .966036338583D+00  .164562500000D+03 -.257178784940D+01 -.792997317236D-08
    -.171435712414D-09  .100000000000D+01  .228900000000D+04  .000000000000D+00
     .240000000000D+01  .000000000000D+00 -.838190317154D-08  .721000000000D+03
     .446400000000D+06  .400000000000D+01
24 23 11 24  6  0  0.0 -.378406606615D-03 -.864019966684D-11  .000000000000D+00
     .900000000000D+01 -.323125000000D+02  .487627454498D-08  .241461988046D+01
    -.182352960110D-05  .149039932294D-01  .119861215353D-04  .515363088036D+04
     .453600000000D+06  .540167093277D-07  .216767567187D+01 -.288709998131D-06
     .933761513064D+00  .130250000000D+03  .946205098635D+00 -.801533387083D-08
    -.525021869268D-09  .100000000000D+01  .228900000000D+04  .000000000000D+00
     .240000000000D+01  .000000000000D+00  .232830643654D-08  .900000000000D+01
     .446400000000D+06  .400000000000D+01
16 23 11 24  6  0  0.0 -.416587572545D-03  .682121026330D-11  .000000000000D+00
     .110000000000D+02  .110062500000D+03  .436196740774D-08 -.105943877472D+01
     .599212944508D-05  .136799670290D-01  .689178705215D-05  .515369607544D+04
     .453600000000D+06  .253319740295D-06 -.288883739938D+01  .154599547386D-06
     .963873270836D+00  .244343750000D+03  .803623477709D+00 -.816926885427D-08
     .358586365133D-09  .100000000000D+01  .228900000000D+04  .000000000000D+00
     .240000000000D+01  .000000000000D+00 -.102445483208D-07  .110000000000D+02
     .446400000000D+06  .400000000000D+01
31 23 11 24  6  0  0.0 -.226021744311D-03 -.341060513165D-12  .000000000000D+00
     .450000000000D+02 -.152812500000D+02  .443839916285D-08  .525800491690D+00
    -.510364770889D-06  .106191568775D-01  .112503767014D-04  .515365278053D+04
     .453600000000D+06 -.121071934700D-06  .228221926967D+01  .266358256340D-06
     .954260870624D+00  .159718750000D+03  .628928184858D+00 -.799283293357D-08
    -.443947063606D-09  .100000000000D+01  .228900000000D+04  .000000000000D+00
     .240000000000D+01  .000000000000D+00 -.135041773319D-07  .450000000000D+02
     .446400000000D+06  .400000000000D+01
32 23 11 24  6  0  0.0 -.589246861637D-03 -.420641299570D-11  .000000000000D+00
     .570000000000D+02 -.178125000000D+02  .502628079334D-08 -.132163667652D+01
    -.953674316406D-06  .716140482109D-02  .462308526039D-05  .515359021568D+04
     .453600000000D+06  .236555933952D-06  .120296667836D+01  .726431608200D-07
     .960318107801D+00  .292531250000D+03 -.222103482615D+01 -.833534720067D-08
    -.198222542479D-09  .100000000000D+01  .228900000000D+04  .000000000000D+00
     .240000000000D+01  .000000000000D+00  .465661287308D-09  .570000000000D+02
     .446400000000D+06  .400000000000D+01
27 23 11 24  6  0  0.0 -.741649419069D-04 -.511590769747D-11  .000000000000D+00
     .940000000000D+02 -.174375000000D+02  .477484174847D-08 -.196157587272D+01
    -.110454857349D-05  .118611890357D-01  .150687992573D-05  .515366642570D+04
     .453600000000D+06  .147148966789D-06 -.193450897266D+01 -.117346644402D-06
     .964780787678D+00  .349812500000D+03  .742004431943D+00 -.837177728956D-08
     .114290474943D-09  .100000000000D+01  .228900000000D+04  .000000000000D+00
     .340000000000D+01  .000000000000D+00  .186264514923D-08  .940000000000D+02
     .446400000000D+06  .400000000000D+01
